COSMOS 2426 (717)       
1 29671U 06062B   19314.16550280 -.00000017  00000-0  10000-3 0  9997
2 29671  65.0561 275.3552 0020670 178.9709  23.7724  2.12961936100202
COSMOS 2433 (720)       
1 32275U 07052A   19314.05571168 -.00000066  00000-0  10000-3 0  9991
2 32275  65.9075  36.2684 0003951 225.6243 280.6398  2.13104428 93715
COSMOS 2432 (719)       
1 32276U 07052B   19314.28865917 -.00000065  00000-0  10000-3 0  9994
2 32276  65.9204  36.3476 0008939 323.8780 311.8239  2.13103596 93714
COSMOS 2434 (721)       
1 32393U 07065A   19313.76198051 -.00000020  00000-0  00000+0 0  9994
2 32393  64.6620 273.9920 0001344 143.6016  24.7312  2.13102986 92418
COSMOS 2436 (723)       
1 32395U 07065C   19314.50754179 -.00000017  00000-0  10000-3 0  9999
2 32395  64.6698 274.0188 0014816 330.8406 130.2131  2.13280866 92364
COSMOS 2456 (730)       
1 36111U 09070A   19314.01787529  .00000108  00000-0  00000+0 0  9993
2 36111  64.2047 153.6370 0002815 346.6574 191.2931  2.13102964 77089
COSMOS 2457 (733)       
1 36112U 09070B   19313.63933197  .00000107  00000-0  00000+0 0  9994
2 36112  64.1898 153.5488 0006480 148.8794 223.0004  2.13101529 77081
COSMOS 2459 (731)       
1 36400U 10007A   19313.52846222 -.00000070  00000-0  10000-3 0  9991
2 36400  65.8124  35.2867 0023872 349.2769 327.3053  2.13102000 75424
COSMOS 2461 (735)       
1 36401U 10007B   19313.77158005 -.00000068  00000-0  10000-3 0  9991
2 36401  65.8048  35.2492 0006137  80.2507 333.3533  2.13101881 75438
COSMOS 2460 (732)       
1 36402U 10007C   19313.64020863 -.00000069  00000-0  10000-3 0  9999
2 36402  65.7952  35.2155 0001848 183.7861 168.5967  2.13101358 75421
COSMOS 2464 (736)       
1 37139U 10041C   19314.20572054 -.00000019  00000-0  00000+0 0  9992
2 37139  64.2618 273.5277 0024846   6.0151   7.9578  2.13100672 71514
COSMOS 2474 (742)       
1 37829U 11055A   19313.80945116  .00000107  00000-0  00000+0 0  9999
2 37829  64.5288 154.5773 0008026 241.7373 352.0513  2.13101886 63074
COSMOS 2476 (744)       
1 37867U 11064A   19313.68366546  .00000107  00000-0  00000+0 0  9991
2 37867  64.5043 154.6298 0017545 234.8166 308.6539  2.13101896 62421
COSMOS 2477 (745)       
1 37868U 11064B   19313.69550851  .00000107  00000-0  00000+0 0  9997
2 37868  64.5172 154.6832 0015132 235.7389 135.4403  2.13101806 62388
COSMOS 2475 (743)       
1 37869U 11064C   19313.69520207  .00000107  00000-0  00000+0 0  9990
2 37869  64.5229 154.6825 0018810 261.6033  66.5787  2.13102051 62386
COSMOS 2485 (747)       
1 39155U 13019A   19313.77792610  .00000108  00000-0  00000+0 0  9991
2 39155  64.6769 154.8477 0018105 229.5847  70.8832  2.13101956 50899
COSMOS 2492 (754)       
1 39620U 14012A   19314.05192813 -.00000067  00000-0  10000-3 0  9993
2 39620  65.6860  35.0144 0012319 320.3086 225.4457  2.13103292 43850
COSMOS 2500 (755)       
1 40001U 14032A   19314.43298331 -.00000064  00000-0  00000+0 0  9996
2 40001  65.6265  34.9344 0008090 201.5913 137.5690  2.13102477 42073
COSMOS 2501 (702K)      
1 40315U 14075A   19313.62421411 -.00000021  00000-0  00000+0 0  9991
2 40315  63.9820 274.5739 0017244 212.1269  23.3381  2.13098507 38467
COSMOS 2514 (751)       
1 41330U 16008A   19313.89297576 -.00000068  00000-0  00000+0 0  9990
2 41330  65.4292  34.8796 0011520 210.9206 255.9523  2.13102941 29237
COSMOS 2516 (753)       
1 41554U 16032A   19314.16594264 -.00000019  00000-0  00000+0 0  9996
2 41554  64.2040 274.5634 0014367 225.0604 341.8284  2.13101721 26846
COSMOS 2522 (752)       
1 42939U 17055A   19314.07431699 -.00000019  00000-0  00000+0 0  9992
2 42939  64.4370 274.6836 0009777 250.3935 112.7200  2.13101995 16603
COSMOS 2527 (756)       
1 43508U 18053A   19313.61698277  .00000107  00000-0  00000+0 0  9997
2 43508  64.8366 154.6553 0005886 217.7605 185.9920  2.13102625 10882
COSMOS 2529 (757)       
1 43687U 18086A   19314.43512619 -.00000017  00000-0  00000+0 0  9998
2 43687  64.6498 274.7304 0012272 270.2186 325.3691  2.13102016  7916
COSMOS 2534 (758)       
1 44299U 19030A   19313.82016701 -.00000019  00000-0  00000+0 0  9993
2 44299  64.7186 274.5462 0015242 285.7236 333.2515  2.13101884  3541
